FLOCK 4G-3              
1 62639U 25009AG  26068.80174065  .00011494  00000+0  43389-3 0  9993
2 62639  97.4062 151.4068 0001320 293.2042  66.9058 15.27179310 63727
KUIPER-00266            
1 67789U 26030AB  26067.91293632  .00029701  00000+0  98220-3 0  9996
2 67789  51.8807 223.5904 0022313  72.5291 287.8129 15.30874235  4964
